[{"OBJECT_NAME":"GHGSAT-C4","OBJECT_ID":"2022-057Q","EPOCH":"2026-03-09T22:58:28.655904","MEAN_MOTION":15.3293316,"ECCENTRICITY":0.0007552,"INCLINATION":97.6357,"RA_OF_ASC_NODE":210.0193,"ARG_OF_PERICENTER":100.0033,"MEAN_ANOMALY":260.2061,"EPHEMERIS_TYPE":0,"CLASSIFICATION_TYPE":"U","NORAD_CAT_ID":52746,"ELEMENT_SET_NO":999,"REV_AT_EPOCH":21033,"BSTAR":0.00030289005,"MEAN_MOTION_DOT":9.562e-5,"MEAN_MOTION_DDOT":0},{"OBJECT_NAME":"STARLINK-35926","OBJECT_ID":"2025-271AB","EPOCH":"2026-03-09T10:17:59.123328","MEAN_MOTION":15.30180363,"ECCENTRICITY":0.00011082,"INCLINATION":53.1576,"RA_OF_ASC_NODE":141.3613,"ARG_OF_PERICENTER":91.4584,"MEAN_ANOMALY":268.6543,"EPHEMERIS_TYPE":0,"CLASSIFICATION_TYPE":"U","NORAD_CAT_ID":66642,"ELEMENT_SET_NO":999,"REV_AT_EPOCH":1748,"BSTAR":0.00040891163,"MEAN_MOTION_DOT":0.00011764,"MEAN_MOTION_DDOT":0}]
